{
    "links": {
        "self": "http://www.neowsapp.com/rest/v1/neo/3388888?api_key=iIulBulltgU6a56xZRHN4H3l9WmuAYTsLGpBGhQ2"
    },
    "id": "3388888",
    "neo_reference_id": "3388888",
    "name": "(2007 UT)",
    "designation": "2007 UT",
    "nasa_jpl_url": "http://ssd.jpl.nasa.gov/sbdb.cgi?sstr=3388888",
    "absolute_magnitude_h": 21.5,
    "estimated_diameter": {
        "kilometers": {
            "estimated_diameter_min": 0.1332155667,
            "estimated_diameter_max": 0.2978790628
        },
        "meters": {
            "estimated_diameter_min": 133.2155666981,
            "estimated_diameter_max": 297.8790627982
        },
        "miles": {
            "estimated_diameter_min": 0.0827762899,
            "estimated_diameter_max": 0.1850934111
        },
        "feet": {
            "estimated_diameter_min": 437.0589598459,
            "estimated_diameter_max": 977.2935443908
        }
    },
    "is_potentially_hazardous_asteroid": false,
    "close_approach_data": [
        {
            "close_approach_date": "2007-10-28",
            "close_approach_date_full": "2007-Oct-28 03:56",
            "epoch_date_close_approach": 1193543760000,
            "relative_velocity": {
                "kilometers_per_second": "24.0796684489",
                "kilometers_per_hour": "86686.8064161739",
                "miles_per_hour": "53863.8103534276"
            },
            "miss_distance": {
                "astronomical": "0.1500870789",
                "lunar": "58.3838736921",
                "kilometers": "22452707.317961943",
                "miles": "13951465.3893350934"
            },
            "orbiting_body": "Earth"
        },
        {
            "close_approach_date": "2008-04-07",
            "close_approach_date_full": "2008-Apr-07 01:28",
            "epoch_date_close_approach": 1207531680000,
            "relative_velocity": {
                "kilometers_per_second": "23.1126131073",
                "kilometers_per_hour": "83205.4071863462",
                "miles_per_hour": "51700.6042597605"
            },
            "miss_distance": {
                "astronomical": "0.4822573212",
                "lunar": "187.5980979468",
                "kilometers": "72144668.043425844",
                "miles": "44828617.9915468872"
            },
            "orbiting_body": "Earth"
        }
    ],
    "orbital_data": {
        "orbit_id": "11",
        "orbit_determination_date": "2017-04-06 09:05:36",
        "first_observation_date": "2007-10-17",
        "last_observation_date": "2007-11-06",
        "data_arc_in_days": 20,
        "observations_used": 42,
        "orbit_uncertainty": "8",
        "minimum_orbit_intersection": ".137561",
        "jupiter_tisserand_invariant": "4.136",
        "epoch_osculation": "2454401.5",
        "eccentricity": ".3558867765253562",
        "semi_major_axis": "1.517371180159923",
        "inclination": "45.58930394021907",
        "ascending_node_longitude": "30.29312478275637",
        "orbital_period": "682.7098574843934",
        "perihelion_distance": ".9773588420603322",
        "perihelion_argument": "63.24650138944875",
        "aphelion_distance": "2.057383518259513",
        "perihelion_time": "2454459.124181512936",
        "mean_anomaly": "329.6141704748548",
        "mean_motion": ".5273103882321334",
        "equinox": "J2000",
        "orbit_class": {
            "orbit_class_type": "APO",
            "orbit_class_description": "Near-Earth asteroid orbits which cross the Earth’s orbit similar to that of 1862 Apollo",
            "orbit_class_range": "a (semi-major axis) > 1.0 AU; q (perihelion) < 1.017 AU"
        }
    },
    "is_sentry_object": false
}